[{"OBJECT_NAME":"KUIPER-00113","OBJECT_ID":"2025-228B","EPOCH":"2026-03-09T22:29:23.137440","MEAN_MOTION":14.79886464,"ECCENTRICITY":5.385e-5,"INCLINATION":51.8999,"RA_OF_ASC_NODE":354.4999,"ARG_OF_PERICENTER":69.622,"MEAN_ANOMALY":290.48,"EPHEMERIS_TYPE":0,"CLASSIFICATION_TYPE":"U","NORAD_CAT_ID":65948,"ELEMENT_SET_NO":999,"REV_AT_EPOCH":2333,"BSTAR":-5.789971e-6,"MEAN_MOTION_DOT":-2.65e-6,"MEAN_MOTION_DDOT":0},{"OBJECT_NAME":"FENGYUN 1C DEB","OBJECT_ID":"1999-025HZ","EPOCH":"2026-03-09T16:41:13.331616","MEAN_MOTION":14.78396279,"ECCENTRICITY":0.00151144,"INCLINATION":99.0743,"RA_OF_ASC_NODE":108.3738,"ARG_OF_PERICENTER":297.9411,"MEAN_ANOMALY":189.0746,"EPHEMERIS_TYPE":0,"CLASSIFICATION_TYPE":"U","NORAD_CAT_ID":29927,"ELEMENT_SET_NO":999,"REV_AT_EPOCH":99930,"BSTAR":0.002279364,"MEAN_MOTION_DOT":0.00016605,"MEAN_MOTION_DDOT":0}]
